start=new Date('2022-05-08T00:00:00.000Z').valueOf();
sats=[{"BSTAR":"-0.04049800000000","EPHEMERIS_TYPE":"0","SEMIMAJOR_AXIS":"6896.818","TLE_LINE1":"1 49152U 21082Y   22127.58334491 -.00721401  00000-0 -40498-1 0  9998","RCS_SIZE":"LARGE","REV_AT_EPOCH":"3808","ARG_OF_PERICENTER":"280.8888","OBJECT_TYPE":"PAYLOAD","PERIOD":"95.002","EPOCH":"2022-05-07T14:00:01.000224","TIME_SYSTEM":"UTC","FILE":"3433370","OBJECT_ID":"2021-082Y","CENTER_NAME":"EARTH","MEAN_MOTION_DOT":"-0.00721401","MEAN_ANOMALY":"4.6220","ECCENTRICITY":"0.00032780","COUNTRY_CODE":"US","INCLINATION":"70.0000","RA_OF_ASC_NODE":"189.2667","OBJECT_NAME":"STARLINK-3081","DECAY_DATE":null,"MEAN_ELEMENT_THEORY":"SGP4","MEAN_MOTION_DDOT":"0.0000000000000","TLE_LINE2":"2 49152  70.0000 189.2667 0003278 280.8888   4.6220 15.15757021 38088","SITE":"AFWTR","LAUNCH_DATE":"2021-09-14","MEAN_MOTION":"15.15757021","APOAPSIS":"520.944","PERIAPSIS":"516.422","CLASSIFICATION_TYPE":"U","REF_FRAME":"TEME","GP_ID":"202889195","ELEMENT_SET_NO":"999","NORAD_CAT_ID":"49152"},{"ELEMENT_SET_NO":"999","NORAD_CAT_ID":"49153","CLASSIFICATION_TYPE":"U","REF_FRAME":"TEME","GP_ID":"202927033","PERIAPSIS":"518.920","LAUNCH_DATE":"2021-09-14","MEAN_MOTION":"15.14935199","APOAPSIS":"523.435","SITE":"AFWTR","DECAY_DATE":null,"OBJECT_NAME":"STARLINK-3072","MEAN_MOTION_DDOT":"0.0000000000000","MEAN_ELEMENT_THEORY":"SGP4","TLE_LINE2":"2 49153  70.0000 189.2141 0003272 279.6359  25.8822 15.14935199  3649","INCLINATION":"70.0000","RA_OF_ASC_NODE":"189.2141","MEAN_MOTION_DOT":"-0.00721687","ECCENTRICITY":"0.00032720","MEAN_ANOMALY":"25.8822","COUNTRY_CODE":"US","FILE":"3433971","OBJECT_ID":"2021-082Z","CENTER_NAME":"EARTH","EPOCH":"2022-05-07T14:00:01.000224","TIME_SYSTEM":"UTC","PERIOD":"95.054","ARG_OF_PERICENTER":"279.6359","OBJECT_TYPE":"PAYLOAD","RCS_SIZE":"LARGE","REV_AT_EPOCH":"364","BSTAR":"-0.04147300000000","EPHEMERIS_TYPE":"0","SEMIMAJOR_AXIS":"6899.312","TLE_LINE1":"1 49153U 21082Z   22127.58334491 -.00721687  00000-0 -41473-1 0  9999"},{"GP_ID":"202889688","CLASSIFICATION_TYPE":"U","REF_FRAME":"TEME","ELEMENT_SET_NO":"999","NORAD_CAT_ID":"49154","APOAPSIS":"579.424","LAUNCH_DATE":"2021-09-14","MEAN_MOTION":"14.96700061","PERIAPSIS":"574.782","MEAN_MOTION_DDOT":"0.0000000000000","MEAN_ELEMENT_THEORY":"SGP4","TLE_LINE2":"2 49154  69.9997 208.9534 0003337 278.0785  92.0011 14.96700061 37544","OBJECT_NAME":"STARLINK-3068","DECAY_DATE":null,"SITE":"AFWTR","RA_OF_ASC_NODE":"208.9534","INCLINATION":"69.9997","FILE":"3433406","OBJECT_ID":"2021-082AA","CENTER_NAME":"EARTH","MEAN_ANOMALY":"92.0011","ECCENTRICITY":"0.00033370","COUNTRY_CODE":"US","MEAN_MOTION_DOT":"0.00031961","PERIOD":"96.212","TIME_SYSTEM":"UTC","EPOCH":"2022-05-07T14:00:01.000224","RCS_SIZE":"LARGE","REV_AT_EPOCH":"3754","OBJECT_TYPE":"PAYLOAD","ARG_OF_PERICENTER":"278.0785","SEMIMAJOR_AXIS":"6955.238","TLE_LINE1":"1 49154U 21082AA  22127.58334491  .00031961  00000-0  27887-2 0  9991","BSTAR":"0.00278870000000","EPHEMERIS_TYPE":"0"},{"RA_OF_ASC_NODE":"189.2594","INCLINATION":"70.0001","SITE":"AFWTR","MEAN_MOTION_DDOT":"0.0000000000000","MEAN_ELEMENT_THEORY":"SGP4","TLE_LINE2":"2 49155  70.0001 189.2594 0003208 279.5818 337.1360 15.15550363 38025","OBJECT_NAME":"STARLINK-3060","DECAY_DATE":null,"PERIAPSIS":"517.098","APOAPSIS":"521.523","LAUNCH_DATE":"2021-09-14","MEAN_MOTION":"15.15550363","ELEMENT_SET_NO":"999","NORAD_CAT_ID":"49155","GP_ID":"202889680","REF_FRAME":"TEME","CLASSIFICATION_TYPE":"U","SEMIMAJOR_AXIS":"6897.445","TLE_LINE1":"1 49155U 21082AB  22127.58334491 -.00720399  00000-0 -40677-1 0  9995","BSTAR":"-0.04067700000000","EPHEMERIS_TYPE":"0","OBJECT_TYPE":"PAYLOAD","ARG_OF_PERICENTER":"279.5818","RCS_SIZE":"LARGE","REV_AT_EPOCH":"3802","TIME_SYSTEM":"UTC","EPOCH":"2022-05-07T14:00:01.000224","PERIOD":"95.015","ECCENTRICITY":"0.00032080","MEAN_ANOMALY":"337.1360","COUNTRY_CODE":"US","MEAN_MOTION_DOT":"-0.00720399","FILE":"3433406","OBJECT_ID":"2021-082AB","CENTER_NAME":"EARTH"},{"OBJECT_TYPE":"PAYLOAD","ARG_OF_PERICENTER":"281.7722","REV_AT_EPOCH":"3803","RCS_SIZE":"LARGE","TLE_LINE1":"1 49156U 21082AC  22127.58334491 -.00722552  00000-0 -40136-1 0  9999","SEMIMAJOR_AXIS":"6895.684","EPHEMERIS_TYPE":"0","BSTAR":"-0.04013600000000","COUNTRY_CODE":"US","MEAN_ANOMALY":"56.4480","ECCENTRICITY":"0.00033770","MEAN_MOTION_DOT":"-0.00722552","CENTER_NAME":"EARTH","OBJECT_ID":"2021-082AC","FILE":"3433443","EPOCH":"2022-05-07T14:00:01.000224","TIME_SYSTEM":"UTC","PERIOD":"94.979","SITE":"AFWTR","TLE_LINE2":"2 49156  70.0000 189.2468 0003377 281.7722  56.4480 15.16130941 38033","MEAN_ELEMENT_THEORY":"SGP4","MEAN_MOTION_DDOT":"0.0000000000000","OBJECT_NAME":"STARLINK-3085","DECAY_DATE":null,"RA_OF_ASC_NODE":"189.2468","INCLINATION":"70.0000","NORAD_CAT_ID":"49156","ELEMENT_SET_NO":"999","GP_ID":"202890665","CLASSIFICATION_TYPE":"U","REF_FRAME":"TEME","PERIAPSIS":"515.221","APOAPSIS":"519.878","MEAN_MOTION":"15.16130941","LAUNCH_DATE":"2021-09-14"},{"PERIAPSIS":"574.778","APOAPSIS":"579.342","LAUNCH_DATE":"2021-09-14","MEAN_MOTION":"14.96713895","ELEMENT_SET_NO":"999","NORAD_CAT_ID":"49157","GP_ID":"202926534","CLASSIFICATION_TYPE":"U","REF_FRAME":"TEME","RA_OF_ASC_NODE":"208.9566","INCLINATION":"69.9993","SITE":"AFWTR","MEAN_ELEMENT_THEORY":"SGP4","MEAN_MOTION_DDOT":"0.0000000000000","TLE_LINE2":"2 49157  69.9993 208.9566 0003281 274.0068 122.2960 14.96713895  3581","OBJECT_NAME":"STARLINK-3051","DECAY_DATE":null,"EPOCH":"2022-05-07T14:00:01.000224","TIME_SYSTEM":"UTC","PERIOD":"96.211","MEAN_ANOMALY":"122.2960","ECCENTRICITY":"0.00032810","COUNTRY_CODE":"US","MEAN_MOTION_DOT":"0.00023163","OBJECT_ID":"2021-082AD","FILE":"3433971","CENTER_NAME":"EARTH","SEMIMAJOR_AXIS":"6955.195","TLE_LINE1":"1 49157U 21082AD  22127.58334491  .00023163  00000-0  20251-2 0  9997","BSTAR":"0.00202510000000","EPHEMERIS_TYPE":"0","OBJECT_TYPE":"PAYLOAD","ARG_OF_PERICENTER":"274.0068","RCS_SIZE":"LARGE","REV_AT_EPOCH":"358"},{"CENTER_NAME":"EARTH","OBJECT_ID":"2021-082AE","FILE":"3433971","COUNTRY_CODE":"US","MEAN_ANOMALY":"142.5042","ECCENTRICITY":"0.00034530","MEAN_MOTION_DOT":"0.00021403","PERIOD":"96.211","EPOCH":"2022-05-07T14:00:01.000224","TIME_SYSTEM":"UTC","REV_AT_EPOCH":"358","RCS_SIZE":"LARGE","OBJECT_TYPE":"PAYLOAD","ARG_OF_PERICENTER":"279.9116","TLE_LINE1":"1 49158U 21082AE  22127.58334491  .00021403  00000-0  18721-2 0  9992","SEMIMAJOR_AXIS":"6955.187","EPHEMERIS_TYPE":"0","BSTAR":"0.00187210000000","GP_ID":"202926784","REF_FRAME":"TEME","CLASSIFICATION_TYPE":"U","NORAD_CAT_ID":"49158","ELEMENT_SET_NO":"999","APOAPSIS":"579.453","MEAN_MOTION":"14.96716631","LAUNCH_DATE":"2021-09-14","PERIAPSIS":"574.650","TLE_LINE2":"2 49158  70.0000 208.9429 0003453 279.9116 142.5042 14.96716631  3588","MEAN_MOTION_DDOT":"0.0000000000000","MEAN_ELEMENT_THEORY":"SGP4","OBJECT_NAME":"STARLINK-3083","DECAY_DATE":null,"SITE":"AFWTR","RA_OF_ASC_NODE":"208.9429","INCLINATION":"70.0000"},{"FILE":"3433971","OBJECT_ID":"2021-082AF","CENTER_NAME":"EARTH","MEAN_MOTION_DOT":"0.00016807","ECCENTRICITY":"0.00033430","MEAN_ANOMALY":"13.2214","COUNTRY_CODE":"US","PERIOD":"96.108","TIME_SYSTEM":"UTC","EPOCH":"2022-05-07T14:00:01.000224","RCS_SIZE":"LARGE","REV_AT_EPOCH":"358","ARG_OF_PERICENTER":"281.7157","OBJECT_TYPE":"PAYLOAD","BSTAR":"0.00141340000000","EPHEMERIS_TYPE":"0","SEMIMAJOR_AXIS":"6950.234","TLE_LINE1":"1 49159U 21082AF  22127.58334491  .00016807  00000-0  14134-2 0  9999","CLASSIFICATION_TYPE":"U","REF_FRAME":"TEME","GP_ID":"202927536","ELEMENT_SET_NO":"999","NORAD_CAT_ID":"49159","LAUNCH_DATE":"2021-09-14","MEAN_MOTION":"14.98316827","APOAPSIS":"574.422","PERIAPSIS":"569.775","DECAY_DATE":null,"OBJECT_NAME":"STARLINK-3056","MEAN_MOTION_DDOT":"0.0000000000000","MEAN_ELEMENT_THEORY":"SGP4","TLE_LINE2":"2 49159  70.0008 229.6454 0003343 281.7157  13.2214 14.98316827  3589","SITE":"AFWTR","INCLINATION":"70.0008","RA_OF_ASC_NODE":"229.6454"},{"BSTAR":"0.00134270000000","EPHEMERIS_TYPE":"0","SEMIMAJOR_AXIS":"6950.227","TLE_LINE1":"1 49160U 21082AG  22127.58334491  .00015960  00000-0  13427-2 0  9994","ARG_OF_PERICENTER":"286.6841","OBJECT_TYPE":"PAYLOAD","RCS_SIZE":"LARGE","REV_AT_EPOCH":"358","EPOCH":"2022-05-07T14:00:01.000224","TIME_SYSTEM":"UTC","PERIOD":"96.108","MEAN_MOTION_DOT":"0.00015960","MEAN_ANOMALY":"59.6382","ECCENTRICITY":"0.00032600","COUNTRY_CODE":"US","FILE":"3433971","OBJECT_ID":"2021-082AG","CENTER_NAME":"EARTH","INCLINATION":"70.0017","RA_OF_ASC_NODE":"229.6524","SITE":"AFWTR","DECAY_DATE":null,"OBJECT_NAME":"STARLINK-3095","MEAN_MOTION_DDOT":"0.0000000000000","MEAN_ELEMENT_THEORY":"SGP4","TLE_LINE2":"2 49160  70.0017 229.6524 0003260 286.6841  59.6382 14.98319125  3585","PERIAPSIS":"569.826","LAUNCH_DATE":"2021-09-14","MEAN_MOTION":"14.98319125","APOAPSIS":"574.357","ELEMENT_SET_NO":"999","NORAD_CAT_ID":"49160","CLASSIFICATION_TYPE":"U","REF_FRAME":"TEME","GP_ID":"202928284"},{"COUNTRY_CODE":"US","MEAN_ANOMALY":"47.2755","ECCENTRICITY":"0.00032070","MEAN_MOTION_DOT":"-0.00006474","CENTER_NAME":"EARTH","FILE":"3433971","OBJECT_ID":"2021-082AH","EPOCH":"2022-05-07T14:00:01.000224","TIME_SYSTEM":"UTC","PERIOD":"96.107","OBJECT_TYPE":"PAYLOAD","ARG_OF_PERICENTER":"273.4037","REV_AT_EPOCH":"358","RCS_SIZE":"LARGE","TLE_LINE1":"1 49161U 21082AH  22127.58334491 -.00006474  00000-0 -53536-3 0  9993","SEMIMAJOR_AXIS":"6950.214","EPHEMERIS_TYPE":"0","BSTAR":"-0.00053536000000","NORAD_CAT_ID":"49161","ELEMENT_SET_NO":"999","GP_ID":"202927034","CLASSIFICATION_TYPE":"U","REF_FRAME":"TEME","PERIAPSIS":"569.850","APOAPSIS":"574.308","MEAN_MOTION":"14.98323130","LAUNCH_DATE":"2021-09-14","SITE":"AFWTR","TLE_LINE2":"2 49161  70.0013 229.6502 0003207 273.4037  47.2755 14.98323130  3588","MEAN_ELEMENT_THEORY":"SGP4","MEAN_MOTION_DDOT":"0.0000000000000","OBJECT_NAME":"STARLINK-3080","DECAY_DATE":null,"RA_OF_ASC_NODE":"229.6502","INCLINATION":"70.0013"}];
